OBJECT_NAME,OBJECT_ID,EPOCH,MEAN_MOTION,ECCENTRICITY,INCLINATION,RA_OF_ASC_NODE,ARG_OF_PERICENTER,MEAN_ANOMALY,EPHEMERIS_TYPE,CLASSIFICATION_TYPE,NORAD_CAT_ID,ELEMENT_SET_NO,REV_AT_EPOCH,BSTAR,MEAN_MOTION_DOT,MEAN_MOTION_DDOT
UKUBE-1,2014-037F,2026-06-19T22:40:36.544224,15.13591351,.00028071,98.4240,174.5065,127.2512,232.8973,0,U,40074,999,64897,.40346435E-3,.7166E-4,0
GAOFEN-2,2014-049A,2026-06-19T22:43:08.135616,14.80901192,.00063315,98.0104,235.1514,215.8222,144.2566,0,U,40118,999,63964,.83460392E-4,.592E-5,0
BRITE-PL2 (HEWELIUSZ),2014-049B,2026-06-19T18:48:02.960640,14.94601604,.00153715,97.9101,282.8033,100.7431,259.5521,0,U,40119,999,64183,.16137795E-3,.1691E-4,0
CBERS 4,2014-079A,2026-06-19T23:09:09.508032,14.35509093,.00017377,98.3525,227.7092,62.3889,297.7473,0,U,40336,999,60435,-.1922383E-4,-.98E-6,0
SMAP,2015-003A,2026-06-19T22:50:26.628576,14.63368561,.00013556,98.1275,178.0071,96.6881,263.4476,0,U,40376,999,60802,.67811767E-4,.303E-5,0
GONETS-M 11,2015-020A,2026-06-19T21:45:02.426112,12.42877267,.0016478,82.4862,29.2969,0.0065,0.1012,0,U,40552,999,50907,-.35466971E-3,-.39E-6,0
GONETS-M 12,2015-020B,2026-06-19T23:02:44.304000,12.42891193,.00151876,82.4897,30.3879,344.9699,15.0927,0,U,40553,999,50907,-.25129458E-3,-.25E-6,0
GONETS-M 13,2015-020C,2026-06-19T22:24:37.194912,12.42870496,.00135318,82.4859,29.0185,330.2726,29.7584,0,U,40554,999,50904,-.33805973E-3,-.37E-6,0
DMC3-FM1,2015-032A,2026-06-19T21:34:58.141920,14.85739395,.00068433,97.6452,35.9674,52.5173,307.6664,0,U,40715,999,59031,.22317112E-4,.142E-5,0
DMC3-FM2,2015-032B,2026-06-19T22:06:42.548256,14.85747829,.00074826,97.6507,37.5641,57.1033,303.0902,0,U,40716,999,59031,.1074245E-3,.882E-5,0
DMC3-FM3,2015-032C,2026-06-19T22:40:19.430112,14.85738451,.00067613,97.6561,39.3418,57.3651,302.8216,0,U,40717,999,59032,.93701707E-4,.762E-5,0
CARBONITE 1 (CBNT-1),2015-032D,2026-06-19T22:44:47.808384,14.83593589,.00130654,97.6509,348.8981,288.4249,71.5545,0,U,40718,999,58975,.1253238E-3,.983E-5,0
DEORBITSAIL,2015-032E,2026-06-19T13:15:55.007136,15.03882986,.00119858,97.5886,27.3343,223.3514,136.6770,0,U,40719,999,59160,.4806934E-3,.6572E-4,0
2015-049G,2015-049G,2026-06-19T22:09:41.253696,15.66635923,.00056784,97.4550,215.1615,183.4019,176.7204,0,U,40905,999,59687,.36321324E-3,.38025E-3,0
LILACSAT-2,2015-049K,2026-06-19T21:59:56.813856,15.51519617,.00056836,97.4640,207.8622,232.1035,127.9704,0,U,40908,999,59617,.25111929E-3,.14767E-3,0
COSMOS 2507 (RODNIK-S 13),2015-050A,2026-06-19T21:19:30.226656,12.42926832,.00100908,82.4925,77.9887,351.2288,8.8614,0,U,40920,999,48719,.38115161E-3,.63E-6,0
COSMOS 2508 (RODNIK-S 14),2015-050B,2026-06-19T22:10:41.162592,12.42914223,.00150814,82.4877,76.4706,21.2851,338.8853,0,U,40921,999,48718,.20208281E-3,.38E-6,0
COSMOS 2509 (RODNIK-S 15),2015-050C,2026-06-19T22:40:04.268640,12.42883904,.00156582,82.4886,76.5604,37.4133,322.8034,0,U,40922,999,48722,.63910595E-3,.98E-6,0
LQSAT,2015-057A,2026-06-19T21:58:25.487328,14.76785212,.00153907,97.6682,164.1556,263.7342,96.2116,0,U,40958,999,57571,.21565188E-4,.103E-5,0
LINGQIAO VIDEO A,2015-057B,2026-06-19T22:26:45.100608,14.77393989,.0015163,97.6621,165.6016,260.5582,99.3916,0,U,40959,999,57581,.2376555E-4,.121E-5,0
LINGQIAO VIDEO B,2015-057C,2026-06-19T23:30:23.726592,14.77501877,.00152959,97.6586,166.8066,260.3415,99.6069,0,U,40960,999,57586,.4576015E-4,.278E-5,0
JILIN-1,2015-057D,2026-06-19T22:10:37.462080,14.78164015,.00153702,97.6507,170.1548,253.1000,106.8526,0,U,40961,999,57601,.89976279E-4,.604E-5,0
FOX-1A (AO-85),2015-058D,2026-06-19T18:24:49.502304,14.90978964,.01305696,64.7745,270.9655,55.6095,305.7282,0,U,40967,999,11395,.16075706E-3,.1694E-4,0
SINOD-D 1,2015-058E,2026-06-19T14:50:57.592896,14.95917524,.01192063,64.7746,251.2983,52.1144,309.0679,0,U,40968,999,11702,.19778004E-3,.2377E-4,0
ELEKTRO-L 2,2015-074A,2026-06-18T00:52:34.633344,1.00270556,.00009025,6.6975,70.5132,256.1704,298.2263,0,U,41105,999,3851,0,-.126E-5,0
DAMPE,2015-078A,2026-06-19T23:30:05.236992,15.30791810,.00137447,97.4556,176.4600,68.4588,291.8116,0,U,41173,999,58497,.39977641E-4,.1114E-4,0
ORBCOMM FM114,2015-081A,2026-06-19T20:31:11.358912,14.58861132,.00026208,47.0060,349.3918,218.3860,141.6840,0,U,41179,999,55814,.10230704E-3,.312E-5,0
ORBCOMM FM110,2015-081D,2026-06-19T20:14:25.484064,14.58883660,.00024821,47.0032,348.8841,92.0645,268.0525,0,U,41182,999,55801,.13345137E-3,.46E-5,0
ORBCOMM FM112,2015-081F,2026-06-19T16:14:23.679744,14.58907266,.00038622,46.9988,258.4754,227.9874,132.0683,0,U,41184,999,55931,.11314782E-3,.364E-5,0
ORBCOMM FM113,2015-081G,2026-06-19T12:23:36.534912,14.58860259,.00023755,47.0005,259.6104,232.5233,127.5437,0,U,41185,999,55927,.80780567E-4,.211E-5,0
ORBCOMM FM108,2015-081J,2026-06-18T00:58:24.502368,14.58870752,.00029879,47.0030,178.1625,224.9174,135.1471,0,U,41187,999,56020,.90814462E-4,.258E-5,0
ORBCOMM FM117,2015-081K,2026-06-19T10:39:47.089728,14.58865978,.00035594,46.9990,170.1588,233.3238,126.7321,0,U,41188,999,56045,.61424387E-4,.119E-5,0
ORBCOMM FM116,2015-081L,2026-06-19T15:07:26.899680,14.58886246,.00005195,47.0018,259.0706,92.5393,267.5552,0,U,41189,999,55929,.11710242E-3,.383E-5,0
CHUBUSAT-2,2016-012B,2026-06-19T18:28:27.523200,15.20906418,.00087296,30.9984,304.4416,104.3251,255.8360,0,U,41338,999,56881,.20071026E-3,.4668E-4,0
CHUBUSAT-3,2016-012C,2026-06-19T18:26:08.952288,15.18573874,.00091889,31.0055,314.0961,89.5233,270.6461,0,U,41339,999,56859,.15787668E-3,.3456E-4,0
HORYU-4,2016-012D,2026-06-19T22:28:59.273760,15.98312502,.00064003,30.9843,58.8005,289.5711,70.4260,0,U,41340,999,57125,.95407066E-3,.470481E-2,.86037643E-4
ZIYUAN 3-02 (ZY 3-02),2016-033A,2026-06-19T22:51:16.548768,15.21201261,.00123644,97.3832,246.6745,280.8010,79.1833,0,U,41556,999,55840,.19472973E-3,.4282E-4,0
CARTOSAT-2C,2016-040A,2026-06-19T23:00:25.897248,15.19207543,.00102544,97.4479,230.8987,122.3111,237.9118,0,U,41599,999,55413,.11021906E-3,.2254E-4,0
LAPAN-A3,2016-040E,2026-06-19T22:22:44.716800,15.33119317,.00105556,97.1491,166.9879,16.5165,343.6420,0,U,41603,999,55523,.86472363E-4,.2695E-4,0
GAOFEN-3,2016-049A,2026-06-19T23:56:54.545856,14.42214866,.00014435,98.4010,178.7416,99.9993,260.1360,0,U,41727,999,51905,-.629601E-4,-.251E-5,0
PRATHAM,2016-059A,2026-06-19T13:29:51.733248,14.67196574,.00304547,97.8323,167.3159,208.7199,151.2330,0,U,41783,999,51986,.82455127E-4,.42E-5,0
ALSAT-1N,2016-059G,2026-06-19T23:25:10.464384,14.69309932,.00258091,97.8003,174.2025,175.6564,184.4871,0,U,41789,999,52041,.10234685E-3,.56E-5,0
CAS-2T & KS-1Q,2016-066G,2026-06-19T17:36:58.059648,14.44701664,.03428651,98.3821,246.4413,121.7773,241.7303,0,U,41847,999,50516,.19132694E-3,.1315E-4,0
YUNHAI-1 01,2016-068A,2026-06-19T23:02:39.824160,14.32423918,.00059143,98.5841,181.9422,49.8886,310.2815,0,U,41857,999,50222,-.29898419E-4,-.125E-5,0
RESOURCESAT-2A,2016-074A,2026-06-19T22:57:18.438624,14.21617587,.00032901,98.7525,244.4385,79.6989,280.4559,0,U,41877,999,49469,.91573345E-4,.157E-5,0
TANSAT,2016-081A,2026-06-19T23:45:28.488384,14.59952317,.00194174,98.5363,171.3307,303.1644,56.7692,0,U,41898,999,50503,.26927908E-4,.79E-6,0
JILIN-1 03,2017-002B,2026-06-19T22:43:23.823264,15.41632450,.00070874,97.1949,177.9923,146.3977,213.7721,0,U,41914,999,52228,.25905437E-3,.10836E-3,0
CARTOSAT-2D,2017-008A,2026-06-19T22:11:40.839072,15.19218601,.00040127,97.4099,230.1800,222.6955,137.3968,0,U,41948,999,51799,.70822602E-4,.1424E-4,0
CARTOSAT-2E,2017-036C,2026-06-19T22:37:15.699648,15.19270118,.0002189,97.4269,230.6997,306.4426,53.6607,0,U,42767,999,49856,.11642916E-3,.2387E-4,0
D-SAT,2017-036AF,2026-06-19T05:00:00.801504,15.17057592,.00825627,97.5561,149.1175,153.5779,206.9701,0,U,42794,999,49116,.24271807E-3,.5172E-4,0
IRIDIUM 113,2017-039A,2026-06-19T19:43:23.200320,14.34217745,.00022766,86.3972,321.0770,89.3048,270.8408,0,U,42803,999,47156,.5236938E-5,.34E-6,0
NORSAT 2,2017-042D,2026-06-19T04:44:09.794112,15.21959153,.00103327,97.4042,343.6054,51.0639,309.1517,0,U,42828,999,48804,.3447389E-3,.7805E-4,0
TECHNOSAT,2017-042E,2026-06-19T21:48:40.810752,15.04977332,.00191574,97.4297,328.4628,85.7060,274.6355,0,U,42829,999,48711,.20384003E-3,.2842E-4,0
FLYING LAPTOP,2017-042G,2026-06-19T22:02:36.368736,15.01160904,.00196795,97.4702,326.3461,112.8380,247.4926,0,U,42831,999,48686,.22508966E-3,.2839E-4,0
WNISAT 1R,2017-042L,2026-06-19T21:22:08.855328,15.01772022,.00114058,97.4836,326.9160,138.8786,221.3301,0,U,42835,999,48691,.13495996E-3,.1702E-4,0
LEMUR-2-GREENBERG,2017-042N,2026-06-19T07:24:32.652864,15.31382691,.0008279,97.3823,350.9230,6.1746,353.9596,0,U,42837,999,48871,.47643551E-3,.14389E-3,0
LEMUR-2-FURIAUS,2017-042R,2026-06-19T05:43:35.626656,15.30308008,.00080577,97.3776,348.8037,62.8731,297.3331,0,U,42840,999,48852,.52299501E-3,.15285E-3,0
CORVUS BC2,2017-042X,2026-06-19T22:02:35.925504,15.06313843,.00145701,97.4077,332.1617,101.9478,258.3384,0,U,42846,999,48747,.20515194E-3,.2962E-4,0
CORVUS BC1,2017-042Y,2026-06-19T21:54:23.561280,15.06481246,.00135098,97.4110,332.9722,81.0513,279.2244,0,U,42847,999,48750,.17444071E-3,.2521E-4,0
VRSS-2,2017-060A,2026-06-19T22:57:50.916384,14.81197787,.00186866,97.6505,208.5593,90.5255,269.8100,0,U,42954,999,46886,.55487921E-4,.383E-5,0
MOHAMMED VI-A,2017-070A,2026-06-19T22:05:41.375328,14.77072244,.00013197,97.9556,243.2143,72.8666,287.2688,0,U,43005,999,46438,.68778358E-4,.435E-5,0
FENGYUN 3D,2017-072A,2026-06-19T21:30:03.667392,14.19739831,.00024772,99.0132,145.3674,59.0038,301.1381,0,U,43010,999,44537,-.2297642E-5,-.51E-6,0
CZ-4C R/B,2017-072C,2026-06-19T18:49:50.945088,14.58785351,.01231849,98.5798,278.8693,143.5012,217.4662,0,U,43012,999,45701,.89075769E-4,.406E-5,0
NOAA 20 (JPSS-1),2017-073A,2026-06-19T21:23:26.198880,14.19512178,.00003673,98.7770,110.3299,115.6288,244.4926,0,U,43013,999,44485,.38386489E-4,.37E-6,0
MAKERSAT 0,2017-073D,2026-06-19T15:52:54.097536,15.32165805,.01049656,97.4616,53.1997,264.0130,94.9141,0,U,43016,999,46684,.37210648E-3,.13677E-3,0
